[{"OBJECT_NAME":"STARLINK-5729","OBJECT_ID":"2023-020AD","EPOCH":"2026-03-09T22:00:01.999584","MEAN_MOTION":15.10104174,"ECCENTRICITY":9.821e-5,"INCLINATION":42.9997,"RA_OF_ASC_NODE":2.8491,"ARG_OF_PERICENTER":242.2129,"MEAN_ANOMALY":346.1294,"EPHEMERIS_TYPE":0,"CLASSIFICATION_TYPE":"U","NORAD_CAT_ID":55596,"ELEMENT_SET_NO":999,"REV_AT_EPOCH":577,"BSTAR":0.073258172,"MEAN_MOTION_DOT":0.01319331,"MEAN_MOTION_DDOT":0},{"OBJECT_NAME":"CONNECTA IOT-12","OBJECT_ID":"2025-135AB","EPOCH":"2026-03-09T20:41:06.229824","MEAN_MOTION":15.2119731,"ECCENTRICITY":0.00020679,"INCLINATION":97.4617,"RA_OF_ASC_NODE":185.2328,"ARG_OF_PERICENTER":71.4086,"MEAN_ANOMALY":288.7374,"EPHEMERIS_TYPE":0,"CLASSIFICATION_TYPE":"U","NORAD_CAT_ID":64553,"ELEMENT_SET_NO":999,"REV_AT_EPOCH":3977,"BSTAR":0.0002684746,"MEAN_MOTION_DOT":5.919e-5,"MEAN_MOTION_DDOT":0}]
